ONEWEB-0229             
1 48779U 21045N   25326.94638590 -.00000084  00000+0 -25782-3 0  9999
2 48779  87.8969 300.3388 0002004  85.9886 274.1474 13.15547558217293
ONEWEB-0228             
1 48780U 21045P   25326.97980679 -.00000040  00000+0 -14034-3 0  9992
2 48780  87.8975 300.3144 0002038  88.2916 271.8447 13.15546916217212
ONEWEB-0232             
1 48781U 21045Q   25326.95431350 -.00000133  00000+0 -38790-3 0  9996
2 48781  87.8980 300.3105 0001980  85.2654 274.8703 13.15546903217536
ONEWEB-0231             
1 48782U 21045R   25326.93213615  .00000073  00000+0  15929-3 0  9997
2 48782  87.8970 300.3602 0002171  87.0894 273.0485 13.15547408217222
ONEWEB-0234             
1 48783U 21045S   25326.97001684 -.00000084  00000+0 -25667-3 0  9997
2 48783  87.8968 300.3257 0001701  58.0435 302.0861 13.15547187217363
ONEWEB-0238             
1 48784U 21045T   25326.97030056 -.00000116  00000+0 -34307-3 0  9990
2 48784  87.8967 300.3195 0001767  75.1918 284.9408 13.15549339217267
ONEWEB-0240             
1 48785U 21045U   25326.91551022  .00000076  00000+0  16796-3 0  9991
2 48785  87.8986 300.3229 0002202  82.0029 278.1351 13.15549324217280
ONEWEB-0246             
1 48786U 21045V   25326.90995522  .00000096  00000+0  22194-3 0  9999
2 48786  87.8979 300.3353 0001997  89.8134 270.3225 13.15548401217158
